OBJECT_NAME,OBJECT_ID,EPOCH,MEAN_MOTION,ECCENTRICITY,INCLINATION,RA_OF_ASC_NODE,ARG_OF_PERICENTER,MEAN_ANOMALY,EPHEMERIS_TYPE,CLASSIFICATION_TYPE,NORAD_CAT_ID,ELEMENT_SET_NO,REV_AT_EPOCH,BSTAR,MEAN_MOTION_DOT,MEAN_MOTION_DDOT
STARLINK-37956,2026-147H,2026-07-20T14:00:01.999872,15.72062984,.00019172,97.2839,238.2827,88.9317,106.6926,0,U,69711,999,460,-.21162271E-1,-.237882E-1,0
STARLINK-38043,2026-147J,2026-07-20T00:53:45.864960,15.80907386,.00014263,97.2840,237.7190,96.1838,263.9593,0,U,69712,999,462,.85031003E-3,.166573E-2,0
STARLINK-38020,2026-147K,2026-07-20T14:00:01.999872,15.72625503,.00017946,97.2842,238.2873,96.7616,110.4658,0,U,69713,999,460,-.209747E-1,-.2409623E-1,0
STARLINK-38059,2026-147L,2026-07-20T14:00:01.999872,15.72186064,.00018704,97.2840,238.2854,97.2223,104.3588,0,U,69714,999,460,-.2046932E-1,-.2322312E-1,0
STARLINK-38061,2026-147M,2026-07-19T12:41:17.256480,15.80867548,.0000273,97.2822,237.1863,37.1076,323.0211,0,U,69715,999,454,.85280438E-3,.166763E-2,0
STARLINK-38060,2026-147N,2026-07-20T12:58:39.859968,15.80882592,.00003815,97.2831,238.2589,88.6986,271.4326,0,U,69716,999,470,.11046114E-2,.217466E-2,0
STARLINK-38040,2026-147P,2026-07-20T14:00:01.999872,15.76307619,.00016552,97.2842,238.3026,93.9143,146.3536,0,U,69717,999,469,-.19024358E-1,-.2541856E-1,0
STARLINK-37989,2026-147Q,2026-07-20T14:00:01.999872,15.72366127,.00018272,97.2850,238.2999,89.1847,139.5963,0,U,69718,999,469,-.19886253E-1,-.2280256E-1,0
STARLINK-38039,2026-147R,2026-07-20T12:55:35.782176,15.80468200,.00054863,97.2844,238.2619,40.4001,319.7673,0,U,69719,999,470,.40163934E-2,.834031E-2,0
STARLINK-38003,2026-147S,2026-07-20T12:54:20.385216,15.80907348,.00010272,97.2820,238.2616,102.6815,257.4568,0,U,69720,999,470,.11885441E-2,.234729E-2,0
STARLINK-38014,2026-147T,2026-07-20T08:19:47.567712,15.80876259,.00012518,97.2843,238.0633,102.9167,257.2241,0,U,69721,999,467,.69835412E-3,.136106E-2,0
STARLINK-37915,2026-147U,2026-07-20T08:18:42.736608,15.80873021,.00010574,97.2838,238.0641,107.3402,252.7982,0,U,69722,999,467,.71687014E-3,.139755E-2,0
STARLINK-38007,2026-147V,2026-07-20T02:17:20.822496,15.80835477,.00069029,97.2825,237.7907,331.9581,28.1315,0,U,69723,999,463,.49575667E-3,.96095E-3,0
STARLINK-38008,2026-147W,2026-07-20T02:11:56.011200,15.80826028,.0001394,97.2832,237.7982,355.1281,4.9973,0,U,69724,999,463,.83152203E-3,.162203E-2,0
STARLINK-38021,2026-147X,2026-07-20T02:10:51.088512,15.80866926,.00013832,97.2837,237.7997,94.6583,265.4844,0,U,69725,999,463,.42434192E-3,.82099E-3,0
STARLINK-38015,2026-147Y,2026-07-20T14:00:01.999872,15.75214189,.00010661,97.2854,238.2956,107.7398,115.0732,0,U,69726,999,469,-.45853442E-3,-.6805E-3,0
STARLINK-38010,2026-147Z,2026-07-20T01:36:19.522368,15.75211739,.00007173,97.2834,237.6780,93.2492,266.8855,0,U,69727,999,462,.94316673E-3,.143063E-2,0
SXM-11,2026-148A,2026-07-20T12:00:38.910240,1.00270747,.00020593,0.0977,264.9042,187.3812,265.6154,0,U,69728,999,37,0,.9E-7,0
HAIYANG-2E,2026-149A,2026-07-20T10:54:16.073280,13.79314857,.00016157,99.3445,208.3077,87.7611,272.3726,0,U,69737,999,254,.5400021E-5,-.39E-6,0
STARLINK-38033,2026-150A,2026-07-20T02:02:55.367520,15.80816017,.00013702,97.2839,39.7289,96.3661,263.7763,0,U,69739,999,409,.97794455E-3,.191346E-2,0
STARLINK-38076,2026-150B,2026-07-20T12:03:52.569792,15.75222814,.00009741,97.2846,40.0788,94.7741,265.3636,0,U,69740,999,415,.77138276E-3,.116675E-2,0
STARLINK-38074,2026-150C,2026-07-20T14:00:01.999872,15.75261164,.00010568,97.2851,40.2427,88.1803,189.0444,0,U,69741,999,416,-.12569516E-2,-.184191E-2,0
STARLINK-38041,2026-150D,2026-07-20T14:00:01.999872,15.75273573,.00013901,97.2861,40.2206,85.6751,137.5494,0,U,69742,999,416,-.13745122E-2,-.201129E-2,0
STARLINK-38087,2026-150E,2026-07-20T14:00:01.999872,15.75238857,.00009882,97.2855,40.2364,87.5195,177.6996,0,U,69743,999,416,-.83290423E-3,-.122849E-2,0
STARLINK-38078,2026-150F,2026-07-20T01:55:57.656352,15.80822759,.00034268,97.2842,39.7354,59.7744,300.3863,0,U,69744,999,409,.74716797E-3,.145467E-2,0
STARLINK-38047,2026-150G,2026-07-20T14:00:01.999872,15.75259520,.00007184,97.2861,40.2240,71.2341,161.9956,0,U,69745,999,416,-.12229275E-2,-.179291E-2,0
STARLINK-38046,2026-150H,2026-07-20T14:00:01.999872,15.75255594,.00011457,97.2848,40.2641,95.5752,231.6313,0,U,69746,999,416,-.10036931E-2,-.147696E-2,0
STARLINK-38067,2026-150J,2026-07-20T11:47:06.300096,15.75225969,.00009609,97.2849,40.0952,73.0757,287.0614,0,U,69747,999,415,.77112967E-3,.116652E-2,0
STARLINK-37988,2026-150K,2026-07-20T11:44:33.901728,15.75246075,.0000383,97.2846,40.0974,22.7417,337.3865,0,U,69748,999,415,.13040691E-2,.199478E-2,0
