STARLINK-37956          
1 69711U 26147H   26201.58335648 -.02378820  00000+0 -21162-1 0  9991
2 69711  97.2839 238.2827 0001917  88.9317 106.6926 15.72062984  4604
STARLINK-38043          
1 69712U 26147J   26201.03733640  .00166573  00000+0  85031-3 0  9999
2 69712  97.2840 237.7190 0001426  96.1838 263.9593 15.80907386  4620
STARLINK-38020          
1 69713U 26147K   26201.58335648 -.02409623  00000+0 -20975-1 0  9990
2 69713  97.2842 238.2873 0001794  96.7616 110.4658 15.72625503  4600
STARLINK-38059          
1 69714U 26147L   26201.58335648 -.02322312  00000+0 -20469-1 0  9998
2 69714  97.2840 238.2854 0001870  97.2223 104.3588 15.72186064  4601
STARLINK-38061          
1 69715U 26147M   26200.52867195  .00166763  00000+0  85280-3 0  9995
2 69715  97.2822 237.1863 0000273  37.1076 323.0211 15.80867548  4543
STARLINK-38060          
1 69716U 26147N   26201.54073912  .00217466  00000+0  11046-2 0  9990
2 69716  97.2831 238.2589 0000381  88.6986 271.4326 15.80882592  4709
STARLINK-38040          
1 69717U 26147P   26201.58335648 -.02541856  00000+0 -19024-1 0  9992
2 69717  97.2842 238.3026 0001655  93.9143 146.3536 15.76307619  4696
STARLINK-37989          
1 69718U 26147Q   26201.58335648 -.02280256  00000+0 -19886-1 0  9993
2 69718  97.2850 238.2999 0001827  89.1847 139.5963 15.72366127  4696
STARLINK-38039          
1 69719U 26147R   26201.53860859  .00834031  00000+0  40164-2 0  9992
2 69719  97.2844 238.2619 0005486  40.4001 319.7673 15.80468200  4702
STARLINK-38003          
1 69720U 26147S   26201.53773594  .00234729  00000+0  11885-2 0  9999
2 69720  97.2820 238.2616 0001027 102.6815 257.4568 15.80907348  4708
STARLINK-38014          
1 69721U 26147T   26201.34707833  .00136106  00000+0  69835-3 0  9991
2 69721  97.2843 238.0633 0001251 102.9167 257.2241 15.80876259  4671
STARLINK-37915          
1 69722U 26147U   26201.34632797  .00139755  00000+0  71687-3 0  9999
2 69722  97.2838 238.0641 0001057 107.3402 252.7982 15.80873021  4676
STARLINK-38007          
1 69723U 26147V   26201.09537989  .00096095  00000+0  49576-3 0  9990
2 69723  97.2825 237.7907 0006902 331.9581  28.1315 15.80835477  4635
STARLINK-38008          
1 69724U 26147W   26201.09162050  .00162203  00000+0  83152-3 0  9997
2 69724  97.2832 237.7982 0001394 355.1281   4.9973 15.80826028  4636
STARLINK-38021          
1 69725U 26147X   26201.09086908  .00082099  00000+0  42434-3 0  9997
2 69725  97.2837 237.7997 0001383  94.6583 265.4844 15.80866926  4638
STARLINK-38015          
1 69726U 26147Y   26201.58335648 -.00068050  00000+0 -45853-3 0  9991
2 69726  97.2854 238.2956 0001066 107.7398 115.0732 15.75214189  4691
STARLINK-38010          
1 69727U 26147Z   26201.06689262  .00143063  00000+0  94317-3 0  9994
2 69727  97.2834 237.6780 0000717  93.2492 266.8855 15.75211739  4626
SXM-11                  
1 69728U 26148A   26201.50045035  .00000009  00000+0  00000+0 0  9993
2 69728   0.0977 264.9042 0002059 187.3812 265.6154  1.00270747   377
HAIYANG-2E              
1 69737U 26149A   26201.45435270 -.00000039  00000+0  54000-5 0  9991
2 69737  99.3445 208.3077 0001615  87.7611 272.3726 13.79314857  2546
STARLINK-38033          
1 69739U 26150A   26201.08536305  .00191346  00000+0  97794-3 0  9991
2 69739  97.2839  39.7289 0001370  96.3661 263.7763 15.80816017  4098
STARLINK-38076          
1 69740U 26150B   26201.50269178  .00116675  00000+0  77138-3 0  9993
2 69740  97.2846  40.0788 0000974  94.7741 265.3636 15.75222814  4151
STARLINK-38074          
1 69741U 26150C   26201.58335648 -.00184191  00000+0 -12570-2 0  9996
2 69741  97.2851  40.2427 0001056  88.1803 189.0444 15.75261164  4169
STARLINK-38041          
1 69742U 26150D   26201.58335648 -.00201129  00000+0 -13745-2 0  9993
2 69742  97.2861  40.2206 0001390  85.6751 137.5494 15.75273573  4161
STARLINK-38087          
1 69743U 26150E   26201.58335648 -.00122849  00000+0 -83290-3 0  9998
2 69743  97.2855  40.2364 0000988  87.5195 177.6996 15.75238857  4163
STARLINK-38078          
1 69744U 26150F   26201.08052843  .00145467  00000+0  74717-3 0  9990
2 69744  97.2842  39.7354 0003426  59.7744 300.3863 15.80822759  4099
STARLINK-38047          
1 69745U 26150G   26201.58335648 -.00179291  00000+0 -12229-2 0  9996
2 69745  97.2861  40.2240 0000718  71.2341 161.9956 15.75259520  4161
STARLINK-38046          
1 69746U 26150H   26201.58335648 -.00147696  00000+0 -10037-2 0  9996
2 69746  97.2848  40.2641 0001145  95.5752 231.6313 15.75255594  4161
STARLINK-38067          
1 69747U 26150J   26201.49104514  .00116652  00000+0  77113-3 0  9998
2 69747  97.2849  40.0952 0000960  73.0757 287.0614 15.75225969  4157
STARLINK-37988          
1 69748U 26150K   26201.48928127  .00199478  00000+0  13041-2 0  9998
2 69748  97.2846  40.0974 0000383  22.7417 337.3865 15.75246075  4150
